[{"OBJECT_NAME":"LAPAN-A3","OBJECT_ID":"2016-040E","EPOCH":"2026-03-09T23:01:57.724896","MEAN_MOTION":15.3238951,"ECCENTRICITY":0.00109839,"INCLINATION":97.1488,"RA_OF_ASC_NODE":68.4254,"ARG_OF_PERICENTER":22.062,"MEAN_ANOMALY":338.1093,"EPHEMERIS_TYPE":0,"CLASSIFICATION_TYPE":"U","NORAD_CAT_ID":41603,"ELEMENT_SET_NO":999,"REV_AT_EPOCH":53961,"BSTAR":0.00017567445,"MEAN_MOTION_DOT":5.428e-5,"MEAN_MOTION_DDOT":0},{"OBJECT_NAME":"STARLINK-33603","OBJECT_ID":"2025-053T","EPOCH":"2026-03-09T12:25:57.283104","MEAN_MOTION":15.27642092,"ECCENTRICITY":0.00015688,"INCLINATION":42.9995,"RA_OF_ASC_NODE":243.0323,"ARG_OF_PERICENTER":285.3974,"MEAN_ANOMALY":74.6704,"EPHEMERIS_TYPE":0,"CLASSIFICATION_TYPE":"U","NORAD_CAT_ID":63282,"ELEMENT_SET_NO":999,"REV_AT_EPOCH":5616,"BSTAR":0.0025977267,"MEAN_MOTION_DOT":0.0007206,"MEAN_MOTION_DDOT":0}]
